#dP2022  7  8 12  0  0.00000000      96 __u+U ITR00 EXT  IAC
## 2217 475200.00000000   900.00000000 59768 0.5000000000000
+  113   C06C07C08C09C10C11C12C13C14C19C20C21C22C23C24C25C26
+        C27C28C29C30C32C33C34C35C36C37C38C39C41C42C43C44C45
+        C46E01E02E03E04E05E07E08E09E10E11E12E13E14E15E18E19
+        E21E24E25E26E27E30E31E33E34E36G01G02G03G04G05G06G07
+        G08G09G10G11G12G13G14G15G16G17G18G19G20G21G22G23G24
+        G25G26G27G28G29G30G31G32J02R01R02R03R04R05R07R08R09
+        R11R12R13R14R15R17R18R19R20R21R24  0  0  0  0  0  0
++         0  0  0  0  0  0  0  0  0  0  0  0  0  0  0  0  0
++         0  0  0  0  0  0  0  0  0  0  0  0  0  0  0  0  0
++         0  0  0  0  0  0  0  0  0  0  0  0  0  0  0  0  0
++         0  0  0  0  0  0  0  0  0  0  0  0  0  0  0  0  0
++         0  0  0  0  0  0  0  0  0  0  0  0  0  0  0  0  0
++         0  0  0  0  0  0  0  0  0  0  0  0  0  0  0  0  0
++         0  0  0  0  0  0  0  0  0  0  0  0  0  0  0  0  0
%c M  cc GPS ccc cccc cccc cccc cccc ccccc ccccc ccccc ccccc
%c cc cc ccc ccc cccc cccc cccc cccc ccccc ccccc ccccc ccccc
%f  0.0000000  0.000000000  0.00000000000  0.000000000000000
%f  0.0000000  0.000000000  0.00000000000  0.000000000000000
%i    0    0    0    0      0      0      0      0         0
%i    0    0    0    0      0      0      0      0         0
/* IAC                                ULTRA-RAPID PREDICTION
/* S/V CLOCKS ARE ALIGNED TO GNSS TIME                      
/* G:C1WC2W R:C1PC2P E:C1XC5X C:C2IC6I J:C1CC2S             
/* PCV:IGS14_2215 OL/AL:FES2004  NONE     YN ORB:CoN CLK:CoN
*  2022 07 09  9 45  0.00000000
PC06 -10590.197848  40887.933025   2033.750527    356.706714
PC07  -2404.854554  29269.810829 -30166.119821   -405.569625
PC08 -16100.482480  24128.910861  30543.929712    397.002839
PC09  -7415.526045  41433.947676  -5001.978364   -933.478727
PC10   4048.824214  31101.662099 -27680.531046    120.004261
PC11  -1474.159704  27480.686803   4566.326037    463.665918
PC12 -11796.911708  21843.347853 -12697.673064   -581.224153
PC13 -10490.354774  25326.548709  32069.164880     18.879887
PC14   7079.414215  20575.651631  17456.112805    533.822183
PC19 -15865.833973 -20711.506459  -9912.164835   -171.866613
PC20    821.121696 -17865.288259 -21418.296660   -964.025049
PC21 -18211.880537   3985.781208  20788.908541   -642.851719
PC22 -24085.929120 -11773.895969   7804.136316   -962.859040
PC23  23156.383915   2508.084817 -15357.593474   -942.853888
PC24 -13720.784187  18139.964997 -16156.296316   -968.014334
PC25   8171.477861  14148.771444 -22626.611944   -710.182276
PC26 -25035.432319  12179.651890  -1628.254293    712.077536
PC27  15177.822533 -14038.201882  18713.277626    751.480615
PC28  14943.296949   6375.667234  22685.901606     87.935701
PC29  -6580.623687 -23753.020820 -13099.015842    579.295290
PC30   6164.723041 -26805.337952   4645.279410    500.891409
PC32  18198.036169  -4092.249233 -20737.237935   -973.141553
PC33  15861.428106  20642.755924  10027.194557   -123.531513
PC34  -5578.365042  27110.734407  -3651.940112   -362.808200
PC35 -14958.703490  -7168.067377 -22450.406751    357.701427
PC36  -7237.516505 -14615.566913  22674.334274   -973.721976
PC37  25696.840599 -10898.864592    486.743132   -915.028233
PC38 -22753.204126  25773.258501  24343.399685      8.883614
PC39 -13146.472004  38654.104230  10917.877600     -0.028485
PC41  24071.596326  12066.255129  -7268.157455    -66.060006
PC42  -2015.224534  17350.629342  21800.240983   -954.590612
PC43   6091.089553  24229.177458  12439.501736      1.922985
PC44 -14853.760770  14375.015798 -18776.966110    718.341916
PC45 -23289.587039  -2207.274846  15209.817610    804.370956
PC46  12225.534273 -18226.207599  17265.095217   -422.339613
PE01  20215.945162 -10291.843435  19020.797878   -511.725847
PE02 -20056.045103  10384.950626 -19124.148388    310.816544
PE03  -9981.827953  16814.634898  22218.558985   -577.163698
PE04  -4493.186002 -27770.830476  -9204.689830  -1067.547503
PE05 -18868.666295  -4248.152817  22414.726629   -164.633369
PE07  16643.229317  22517.695448  -9570.337792   -685.890314
PE08   4754.042869  27758.628200   9091.930409   -560.557235
PE09 -16679.830268 -22488.167269   9637.123940   -581.438240
PE10  -1893.156647 -20408.572028 -21373.913449   -525.107495
PE11 -10696.949624 -12411.497366 -24668.519292   3072.871042
PE12   6683.612536 -24720.124813 -14844.617459    -52.805514
PE13  10077.742119  12995.804616  24606.328165    429.722159
PE14 -20521.529292    692.319429 -24265.239086  -1784.284287
PE15  -6815.520226  24757.968139  14722.417263    734.375407
PE18  12329.600964 -12737.131883  17718.573807  -1234.982550
PE19  11479.319335 -14439.275675 -23140.288629  -5143.695215
PE21  29323.774606   1307.467935   3819.143741   -744.871739
PE24 -21312.683800 -13577.301976  15392.058842   -715.085430
PE25 -29348.967389  -1510.945804  -3527.795448   -580.436064
PE26  21283.209875  -7077.391703  19312.757198  -1356.320872
PE27  22268.127291  12983.329199 -14549.364116   -340.696136
PE30   1025.723275  16909.307133 -24278.311002   -657.891694
PE31  -2164.453981 -16920.675732  24201.998083   -499.619385
PE33  19594.254719 -21857.289437   3781.727314   -454.870353
PE34 -19491.073829  21976.628182  -3620.387677   -526.187584
PE36 -20925.323971   6296.469485 -19974.799915   -399.630934
PG01  12184.316566 -21489.159575  -9580.182306    324.941971
PG02 -20180.772786  13320.443550 -10515.516832   -651.708159
PG03   6148.729618 -13823.559940 -21938.260167   -302.340171
PG04   3062.278655 -23159.772208 -12541.454740   -148.017762
PG05 -20100.766373   7205.805139  15716.208047    -88.488546
PG06 -17112.694697  -1472.431359 -20223.533634    377.423805
PG07  -2569.624127 -17773.296149  19822.828772    319.883915
PG08   7811.106443 -17386.263691  18305.153893    -75.475081
PG09  -5977.547981 -25703.851490  -2911.975598   -320.818835
PG10  22255.774074  11703.250030   9156.150035   -485.354570
PG11 -21901.753560   9729.680429 -11426.117029    -11.182761
PG12 -10119.658347  12285.696270 -21513.635534   -243.653305
PG13 -13582.214765   7829.136201  21257.507801    344.971501
PG14 -20817.322695 -13234.869574   9980.089918   -111.971483
PG15  -6217.148641  18356.934895  17605.433941    -46.855030
PG16  23843.715262   -547.106261  11882.745515   -514.281995
PG17 -12919.777497 -19376.015028 -12286.430334    634.758709
PG18   1591.868023  17595.752437  19783.437533    118.642862
PG19 -15103.310275 -11394.724274 -18991.540119    181.351538
PG20 -25889.710409   1667.181406   5089.667398    504.690890
PG21  17295.447513 -19618.572132   1608.339274    161.168901
PG22  15581.685601   8532.711460 -19382.731308    289.324091
PG23  13649.940009  14969.110680  17225.482152    -32.107760
PG24 -13384.261732  22226.758279  -4826.566382    201.505488
PG25   5328.559490  16230.419119 -20689.390444    347.051220
PG26  26436.338643   3572.215782   1650.952105    217.186484
PG27  14386.004164  -3796.328528  21788.143652    220.199651
PG28 -24501.428377  -9807.017969   1952.795481    332.562244
PG29   3969.242733  26115.174704  -2398.723415   -531.881474
PG30 -11826.556579 -10507.369697  21430.616534   -533.571294
PG31  19190.454783   -507.741071 -18679.843188   -185.044538
PG32  15338.714935  16505.506776 -14061.217761   -171.653953
PJ02 -32147.451284  14914.095208 -18276.814024     -1.485368
PR01  -2763.276886 -16464.111171 -19290.004283     11.194414
PR02 -15732.087196 -19835.947890  -2794.556474    523.623162
PR03 -18449.345721 -10650.026708  14034.430110     59.906428
PR04 -10682.997700   4022.193620  22839.173272    149.988917
PR05   2803.536117  16674.619705  19119.614273     95.942819
PR07  18325.697754  10218.617141 -14499.782249     37.594335
PR08  10666.522986  -4203.771767 -22730.787292    -66.119457
PR09  11532.778628   8095.125137 -21223.496526     64.816380
PR11  22801.128496  -8738.250868   7361.572226     33.820781
PR12   7880.082628 -12030.122614  21101.324764     19.219981
PR13 -10146.031737  -8426.639703  21825.006926    -24.425318
PR14 -23798.956761    666.821715   9202.038372     24.950402
PR15 -22494.477353   8819.987669  -8163.803874     94.758998
PR17 -10781.448174   -850.393499 -23098.731471    541.935623
PR18 -12745.955190  15851.864020 -15416.456347    122.997403
PR19  -9263.121455  23747.321537   -864.512911   -195.648352
PR20   1565.499200  18264.248479  17756.195994    -74.246408
PR21  11177.326529   -837.825270  22908.358862   -315.969836
PR24  -2778.758057 -17830.247772 -18028.545338    102.674191
EOF
